NORAD_CAT_ID,OBJECT_NAME,OBJECT_TYPE,EPOCH,MEAN_MOTION,ECCENTRICITY,INCLINATION,RA_OF_ASC_NODE,ARG_OF_PERICENTER,MEAN_ANOMALY,BSTAR,MEAN_MOTION_DOT,MEAN_MOTION_DDOT,TLE_LINE0,TLE_LINE1,TLE_LINE2,SEMIMAJOR_AXIS,PERIOD,APOGEE,PERIGEE,DECAYED
49132.0,STARLINK-3090,PAYLOAD,2022-07-18 20:49:43,14.98331425,0.0002826,69.9991,47.3932,253.9068,106.178,-0.0001074,-1.374e-05,0.0,0 STARLINK-3090,1 49132U 21082C   22199.86786272 -.00001374  00000-0 -10740-3 0  9993,2 49132  69.9991  47.3932 0002826 253.9068 106.1780 14.98331425 46781,6950.188,96.107,574.018,570.089,0.0
49132.0,STARLINK-3090,PAYLOAD,2022-07-19 00:01:59,14.98333079,0.0003136,69.9981,47.0566,262.4158,97.6645,-4.0432e-05,-5.75e-06,0.0,0 STARLINK-3090,1 49132U 21082C   22200.00138022 -.00000575  00000-0 -40432-4 0  9990,2 49132  69.9981  47.0566 0003136 262.4158  97.6645 14.98333079 46804,6950.183000000001,96.107,574.2280000000002,569.869,0.0
49132.0,STARLINK-3090,PAYLOAD,2022-07-19 20:51:43,14.98329843,0.0003093,69.999,44.8684,258.2117,101.8696,0.00018028,2.059e-05,0.0,0 STARLINK-3090,1 49132U 21082C   22200.86925881  .00002059  00000-0  18028-3 0  9993,2 49132  69.9990  44.8684 0003093 258.2117 101.8696 14.98329843 46932,6950.193,96.107,574.2080000000002,569.909,0.0
49132.0,STARLINK-3090,PAYLOAD,2022-07-20 14:29:11,14.98338137,0.0002975,69.9988,43.0165,258.808,101.2745,0.00029186,3.392e-05,0.0,0 STARLINK-3090,1 49132U 21082C   22201.60361034  .00003392  00000-0  29186-3 0  9998,2 49132  69.9988  43.0165 0002975 258.8080 101.2745 14.98338137 47045,6950.168000000002,96.106,574.1,569.965,0.0
49132.0,STARLINK-3090,PAYLOAD,2022-07-20 20:53:44,14.98346234,0.0002998,70.0005,42.343,259.0556,101.0266,0.0004339,5.09e-05,0.0,0 STARLINK-3090,1 49132U 21082C   22201.87064945  .00005090  00000-0  43390-3 0  9998,2 49132  70.0005  42.3430 0002998 259.0556 101.0266 14.98346234 47088,6950.143,96.106,574.091,569.924,0.0
49132.0,STARLINK-3090,PAYLOAD,2022-07-21 06:30:32,14.98334213,0.0002726999999999,70.001,41.3328,259.7822,100.3029,4.4033e-05,4.33e-06,0.0,0 STARLINK-3090,1 49132U 21082C   22202.27121393  .00000433  00000-0  44033-4 0  9996,2 49132  70.0010  41.3328 0002727 259.7822 100.3029 14.98334213 47142,6950.18,96.107,573.94,570.15,0.0
49132.0,STARLINK-3090,PAYLOAD,2022-07-21 19:19:37,14.98322311,0.0003047,70.0008,39.9865,258.7655,101.3162,-0.00016422,-2.051e-05,0.0,0 STARLINK-3090,1 49132U 21082C   22202.80530056 -.00002051  00000-0 -16422-3 0  9995,2 49132  70.0008  39.9865 0003047 258.7655 101.3162 14.98322311 47221,6950.217,96.107,574.1990000000002,569.964,0.0
49132.0,STARLINK-3090,PAYLOAD,2022-07-22 00:08:02,14.98321987,0.0003075,70.0008,39.4815,259.1294,100.952,-0.00015711,-1.967e-05,0.0,0 STARLINK-3090,1 49132U 21082C   22203.00558162 -.00001967  00000-0 -15711-3 0  9991,2 49132  70.0008  39.4815 0003075 259.1294 100.9520 14.98321987 47250,6950.218000000003,96.108,574.22,569.945,0.0
49132.0,STARLINK-3090,PAYLOAD,2022-07-23 06:34:35,14.98334871,0.0003183,69.9994,36.283,259.3622,100.7178,-0.00015636,-1.958e-05,0.0,0 STARLINK-3090,1 49132U 21082C   22204.27402320 -.00001958  00000-0 -15636-3 0  9991,2 49132  69.9994  36.2830 0003183 259.3622 100.7178 14.98334871 47444,6950.178000000001,96.107,574.255,569.831,0.0
49132.0,STARLINK-3090,PAYLOAD,2022-07-23 12:59:08,14.98320833,0.0003208999999999,69.9991,35.6093,258.4346,101.6453,0.00019342,2.215e-05,0.0,0 STARLINK-3090,1 49132U 21082C   22204.54106893  .00002215  00000-0  19342-3 0  9990,2 49132  69.9991  35.6093 0003209 258.4346 101.6453 14.98320833 47480,6950.221,96.108,574.317,569.856,0.0
49132.0,STARLINK-3090,PAYLOAD,2022-07-23 14:35:16,14.98321427,0.0003208999999999,69.9992,35.441,258.3843,101.6956,0.00019951,2.288e-05,0.0,0 STARLINK-3090,1 49132U 21082C   22204.60782914  .00002288  00000-0  19951-3 0  9997,2 49132  69.9992  35.4410 0003209 258.3843 101.6956 14.98321427 47492,6950.219,96.108,574.315,569.854,0.0
49132.0,STARLINK-3090,PAYLOAD,2022-07-23 20:59:48,14.98324564,0.000318,70.0007,34.7682,259.4179,100.6622,0.00029608,3.441e-05,0.0,0 STARLINK-3090,1 49132U 21082C   22204.87487139  .00003441  00000-0  29608-3 0  9999,2 49132  70.0007  34.7682 0003180 259.4179 100.6622 14.98324564 47536,6950.21,96.107,574.285,569.865,0.0
49132.0,STARLINK-3090,PAYLOAD,2022-07-24 13:01:09,14.98331898,0.0003208,70.0006,33.0849,259.2752,100.8045,0.00027223,3.157e-05,0.0,0 STARLINK-3090,1 49132U 21082C   22205.54247024  .00003157  00000-0  27223-3 0  9996,2 49132  70.0006  33.0849 0003208 259.2752 100.8045 14.98331898 47638,6950.187,96.107,574.2819999999998,569.822,0.0
49132.0,STARLINK-3090,PAYLOAD,2022-07-24 19:25:41,14.98333737,0.0003206,70.0006,32.4116,259.2715,100.8084,0.00027404,3.179e-05,0.0,0 STARLINK-3090,1 49132U 21082C   22205.80950926  .00003179  00000-0  27404-3 0  9992,2 49132  70.0006  32.4116 0003206 259.2715 100.8084 14.98333737 47676,6950.181,96.107,574.275,569.818,0.0
49132.0,STARLINK-3090,PAYLOAD,2022-07-25 11:27:01,14.98340268,0.0003196,70.0009,30.7282,259.2688,100.8111,0.00027851,3.233e-05,0.0,0 STARLINK-3090,1 49132U 21082C   22206.47710494  .00003233  00000-0  27851-3 0  9997,2 49132  70.0009  30.7282 0003196 259.2688 100.8111 14.98340268 47770,6950.161,96.106,574.247,569.805,0.0
49132.0,STARLINK-3090,PAYLOAD,2022-07-25 16:15:25,14.98341592,0.0003193,70.0005,30.22300000000001,259.051,101.0289,0.00029022,3.373e-05,0.0,0 STARLINK-3090,1 49132U 21082C   22206.67738320  .00003373  00000-0  29022-3 0  9994,2 49132  70.0005  30.2230 0003193 259.0510 101.0289 14.98341592 47807,6950.156999999997,96.106,574.241,569.803,0.0
49132.0,STARLINK-3090,PAYLOAD,2022-07-26 01:52:13,14.98345316,0.0003188999999999,70.0005,29.2129,259.1324,100.9476,0.00029936,3.482e-05,0.0,0 STARLINK-3090,1 49132U 21082C   22207.07793889  .00003482  00000-0  29936-3 0  9995,2 49132  70.0005  29.2129 0003189 259.1324 100.9476 14.98345316 47861,6950.146,96.106,574.227,569.794,0.0
49132.0,STARLINK-3090,PAYLOAD,2022-07-26 13:05:10,14.983430300000002,0.0003159,70.0005,28.0346,259.0599,101.0204,0.00017291,1.971e-05,0.0,0 STARLINK-3090,1 49132U 21082C   22207.54525623  .00001971  00000-0  17291-3 0  9998,2 49132  70.0005  28.0346 0003159 259.0599 101.0204 14.98343030 47939,6950.153,96.106,574.2130000000002,569.822,0.0
49132.0,STARLINK-3090,PAYLOAD,2022-07-26 17:53:34,14.98337473,0.000325,70.0004,27.5296,257.8566,102.2229,3.1711e-05,2.85e-06,0.0,0 STARLINK-3090,1 49132U 21082C   22207.74553740  .00000285  00000-0  31711-4 0  9992,2 49132  70.0004  27.5296 0003250 257.8566 102.2229 14.98337473 47965,6950.17,96.107,574.294,569.776,0.0
49132.0,STARLINK-3090,PAYLOAD,2022-07-26 21:05:51,14.98330694,0.0003286999999999,69.9992,27.193,257.3171,102.762,9.5145e-06,2e-07,0.0,0 STARLINK-3090,1 49132U 21082C   22207.87906474  .00000020  00000-0  95145-5 0  9991,2 49132  69.9992  27.1930 0003287 257.3171 102.7620 14.98330694 47986,6950.191,96.107,574.34,569.771,0.0
49132.0,STARLINK-3090,PAYLOAD,2022-07-27 00:18:07,14.98331584,0.0003322,69.9991,26.8563,257.2178,102.861,8.0429e-07,-8.3e-07,0.0,0 STARLINK-3090,1 49132U 21082C   22208.01258328 -.00000083  00000-0  80429-6 0  9996,2 49132  69.9991  26.8563 0003322 257.2178 102.8610 14.98331584 48002,6950.188,96.107,574.362,569.744,0.0
49132.0,STARLINK-3090,PAYLOAD,2022-07-27 13:07:13,14.98310768,0.0003136,69.9993,25.5096,256.925,103.156,-0.00024279,-2.987e-05,0.0,0 STARLINK-3090,1 49132U 21082C   22208.54668076 -.00002987  00000-0 -24279-3 0  9993,2 49132  69.9993  25.5096 0003136 256.9250 103.1560 14.98310768 48088,6950.252,96.108,574.297,569.938,0.0
49132.0,STARLINK-3090,PAYLOAD,2022-07-27 19:31:45,14.98311205,0.0003212,69.9994,24.8363,258.7446,101.3352,-0.00026086,-3.203e-05,0.0,0 STARLINK-3090,1 49132U 21082C   22208.81372326 -.00003203  00000-0 -26086-3 0  9993,2 49132  69.9994  24.8363 0003212 258.7446 101.3352 14.98311205 48121,6950.251,96.108,574.3480000000002,569.884,0.0
49132.0,STARLINK-3090,PAYLOAD,2022-07-28 05:08:32,14.98331802,0.0003502,69.9994,23.8255,257.0739,103.0029,-2.8358e-05,-4.31e-06,0.0,0 STARLINK-3090,1 49132U 21082C   22209.21426508 -.00000431  00000-0 -28358-4 0  9995,2 49132  69.9994  23.8255 0003502 257.0739 103.0029 14.98331802 48180,6950.187,96.107,574.486,569.618,0.0
49132.0,STARLINK-3090,PAYLOAD,2022-07-28 17:57:37,14.98325333,0.0003342,69.9994,22.4792,257.928,102.1505,9.4684e-05,1.037e-05,0.0,0 STARLINK-3090,1 49132U 21082C   22209.74834719  .00001037  00000-0  94684-4 0  9996,2 49132  69.9994  22.4792 0003342 257.9280 102.1505 14.98325333 48263,6950.206999999999,96.107,574.395,569.75,0.0
49132.0,STARLINK-3090,PAYLOAD,2022-07-29 05:10:33,14.98327771,0.0003106,70.0,21.3008,258.6467,101.4343,0.00011177,1.241e-05,0.0,0 STARLINK-3090,1 49132U 21082C   22210.21566720  .00001241  00000-0  11177-3 0  9996,2 49132  70.0000  21.3008 0003106 258.6467 101.4343 14.98327771 48333,6950.2,96.107,574.224,569.906,0.0
49132.0,STARLINK-3090,PAYLOAD,2022-07-29 11:35:05,14.98330939,0.0003236,69.9998,20.6275,258.04400000000004,102.0356,0.00011582,1.289e-05,0.0,0 STARLINK-3090,1 49132U 21082C   22210.48270481  .00001289  00000-0  11582-3 0  9993,2 49132  69.9998  20.6275 0003236 258.0440 102.0356 14.98330939 48378,6950.19,96.107,574.304,569.806,0.0
49132.0,STARLINK-3090,PAYLOAD,2022-07-29 17:59:38,14.98320899,0.0003171999999999,69.9997,19.9545,258.599,101.4813,0.00029346,3.409e-05,0.0,0 STARLINK-3090,1 49132U 21082C   22210.74974791  .00003409  00000-0  29346-3 0  9990,2 49132  69.9997  19.9545 0003172 258.5990 101.4813 14.98320899 48412,6950.221,96.108,574.2909999999998,569.881,0.0
49132.0,STARLINK-3090,PAYLOAD,2022-07-30 10:00:58,14.9833609,0.0003251,69.9998,18.2711,258.6805,101.3989,0.00011171,1.24e-05,0.0,0 STARLINK-3090,1 49132U 21082C   22211.41734302  .00001240  00000-0  11171-3 0  9995,2 49132  69.9998  18.2711 0003251 258.6805 101.3989 14.98336090 48518,6950.174,96.107,574.299,569.78,0.0
